<?xml version="1.0" encoding="UTF-8"?>
<ndm xmlns:xsi="http://www.w3.org/2001/XMLSchema-instance" xsi:noNamespaceSchemaLocation="https://sanaregistry.org/r/ndmxml_unqualified/ndmxml-2.0.0-master-2.0.xsd">
<omm id="CCSDS_OMM_VERS" version="2.0">
<header><CREATION_DATE/><ORIGINATOR/></header><body><segment><metadata><OBJECT_NAME>KUIPER-00035</OBJECT_NAME><OBJECT_ID>2025-088AA</OBJECT_ID><CENTER_NAME>EARTH</CENTER_NAME><REF_FRAME>TEME</REF_FRAME><TIME_SYSTEM>UTC</TIME_SYSTEM><MEAN_ELEMENT_THEORY>SGP4</MEAN_ELEMENT_THEORY></metadata><data><meanElements><EPOCH>2025-09-15T22:33:53.623872</EPOCH><MEAN_MOTION>14.79876571</MEAN_MOTION><ECCENTRICITY>.00045145</ECCENTRICITY><INCLINATION>51.9010</INCLINATION><RA_OF_ASC_NODE>166.8418</RA_OF_ASC_NODE><ARG_OF_PERICENTER>206.0763</ARG_OF_PERICENTER><MEAN_ANOMALY>153.9973</MEAN_ANOMALY></meanElements><tleParameters><EPHEMERIS_TYPE>0</EPHEMERIS_TYPE><CLASSIFICATION_TYPE>U</CLASSIFICATION_TYPE><NORAD_CAT_ID>63748</NORAD_CAT_ID><ELEMENT_SET_NO>999</ELEMENT_SET_NO><REV_AT_EPOCH>2163</REV_AT_EPOCH><BSTAR>.47636048E-3</BSTAR><MEAN_MOTION_DOT>.3407E-4</MEAN_MOTION_DOT><MEAN_MOTION_DDOT>0</MEAN_MOTION_DDOT></tleParameters></data></segment></body></omm>
<omm id="CCSDS_OMM_VERS" version="2.0">
<header><CREATION_DATE/><ORIGINATOR/></header><body><segment><metadata><OBJECT_NAME>KUIPER-00037</OBJECT_NAME><OBJECT_ID>2025-088AB</OBJECT_ID><CENTER_NAME>EARTH</CENTER_NAME><REF_FRAME>TEME</REF_FRAME><TIME_SYSTEM>UTC</TIME_SYSTEM><MEAN_ELEMENT_THEORY>SGP4</MEAN_ELEMENT_THEORY></metadata><data><meanElements><EPOCH>2025-09-15T22:36:03.468384</EPOCH><MEAN_MOTION>14.79927576</MEAN_MOTION><ECCENTRICITY>.00068014</ECCENTRICITY><INCLINATION>51.8990</INCLINATION><RA_OF_ASC_NODE>165.7982</RA_OF_ASC_NODE><ARG_OF_PERICENTER>153.1375</ARG_OF_PERICENTER><MEAN_ANOMALY>206.9941</MEAN_ANOMALY></meanElements><tleParameters><EPHEMERIS_TYPE>0</EPHEMERIS_TYPE><CLASSIFICATION_TYPE>U</CLASSIFICATION_TYPE><NORAD_CAT_ID>63749</NORAD_CAT_ID><ELEMENT_SET_NO>999</ELEMENT_SET_NO><REV_AT_EPOCH>2243</REV_AT_EPOCH><BSTAR>-.80136622E-4</BSTAR><MEAN_MOTION_DOT>-.834E-5</MEAN_MOTION_DOT><MEAN_MOTION_DDOT>0</MEAN_MOTION_DDOT></tleParameters></data></segment></body></omm>
<omm id="CCSDS_OMM_VERS" version="2.0">
<header><CREATION_DATE/><ORIGINATOR/></header><body><segment><metadata><OBJECT_NAME>KUIPER-00038</OBJECT_NAME><OBJECT_ID>2025-088AC</OBJECT_ID><CENTER_NAME>EARTH</CENTER_NAME><REF_FRAME>TEME</REF_FRAME><TIME_SYSTEM>UTC</TIME_SYSTEM><MEAN_ELEMENT_THEORY>SGP4</MEAN_ELEMENT_THEORY></metadata><data><meanElements><EPOCH>2025-09-16T06:00:02.000160</EPOCH><MEAN_MOTION>14.84182291</MEAN_MOTION><ECCENTRICITY>.00053253</ECCENTRICITY><INCLINATION>51.8980</INCLINATION><RA_OF_ASC_NODE>148.8814</RA_OF_ASC_NODE><ARG_OF_PERICENTER>206.0751</ARG_OF_PERICENTER><MEAN_ANOMALY>201.9869</MEAN_ANOMALY></meanElements><tleParameters><EPHEMERIS_TYPE>0</EPHEMERIS_TYPE><CLASSIFICATION_TYPE>U</CLASSIFICATION_TYPE><NORAD_CAT_ID>63750</NORAD_CAT_ID><ELEMENT_SET_NO>999</ELEMENT_SET_NO><REV_AT_EPOCH>482</REV_AT_EPOCH><BSTAR>-.77834418E-2</BSTAR><MEAN_MOTION_DOT>-.65336E-3</MEAN_MOTION_DOT><MEAN_MOTION_DDOT>0</MEAN_MOTION_DDOT></tleParameters></data></segment></body></omm>
<omm id="CCSDS_OMM_VERS" version="2.0">
<header><CREATION_DATE/><ORIGINATOR/></header><body><segment><metadata><OBJECT_NAME>KUIPER-00039</OBJECT_NAME><OBJECT_ID>2025-134A</OBJECT_ID><CENTER_NAME>EARTH</CENTER_NAME><REF_FRAME>TEME</REF_FRAME><TIME_SYSTEM>UTC</TIME_SYSTEM><MEAN_ELEMENT_THEORY>SGP4</MEAN_ELEMENT_THEORY></metadata><data><meanElements><EPOCH>2025-09-16T06:00:02.000160</EPOCH><MEAN_MOTION>15.04039357</MEAN_MOTION><ECCENTRICITY>.00134198</ECCENTRICITY><INCLINATION>51.8891</INCLINATION><RA_OF_ASC_NODE>285.4032</RA_OF_ASC_NODE><ARG_OF_PERICENTER>72.5457</ARG_OF_PERICENTER><MEAN_ANOMALY>56.5717</MEAN_ANOMALY></meanElements><tleParameters><EPHEMERIS_TYPE>0</EPHEMERIS_TYPE><CLASSIFICATION_TYPE>U</CLASSIFICATION_TYPE><NORAD_CAT_ID>64500</NORAD_CAT_ID><ELEMENT_SET_NO>999</ELEMENT_SET_NO><REV_AT_EPOCH>566</REV_AT_EPOCH><BSTAR>-.84904903E-1</BSTAR><MEAN_MOTION_DOT>-.1099951E-1</MEAN_MOTION_DOT><MEAN_MOTION_DDOT>0</MEAN_MOTION_DDOT></tleParameters></data></segment></body></omm>
<omm id="CCSDS_OMM_VERS" version="2.0">
<header><CREATION_DATE/><ORIGINATOR/></header><body><segment><metadata><OBJECT_NAME>KUIPER-00040</OBJECT_NAME><OBJECT_ID>2025-134B</OBJECT_ID><CENTER_NAME>EARTH</CENTER_NAME><REF_FRAME>TEME</REF_FRAME><TIME_SYSTEM>UTC</TIME_SYSTEM><MEAN_ELEMENT_THEORY>SGP4</MEAN_ELEMENT_THEORY></metadata><data><meanElements><EPOCH>2025-09-15T20:24:29.169504</EPOCH><MEAN_MOTION>14.79745247</MEAN_MOTION><ECCENTRICITY>.00182978</ECCENTRICITY><INCLINATION>51.8982</INCLINATION><RA_OF_ASC_NODE>297.3795</RA_OF_ASC_NODE><ARG_OF_PERICENTER>56.7495</ARG_OF_PERICENTER><MEAN_ANOMALY>303.5218</MEAN_ANOMALY></meanElements><tleParameters><EPHEMERIS_TYPE>0</EPHEMERIS_TYPE><CLASSIFICATION_TYPE>U</CLASSIFICATION_TYPE><NORAD_CAT_ID>64501</NORAD_CAT_ID><ELEMENT_SET_NO>999</ELEMENT_SET_NO><REV_AT_EPOCH>1402</REV_AT_EPOCH><BSTAR>.37790138E-3</BSTAR><MEAN_MOTION_DOT>.2651E-4</MEAN_MOTION_DOT><MEAN_MOTION_DDOT>0</MEAN_MOTION_DDOT></tleParameters></data></segment></body></omm>
<omm id="CCSDS_OMM_VERS" version="2.0">
<header><CREATION_DATE/><ORIGINATOR/></header><body><segment><metadata><OBJECT_NAME>KUIPER-00041</OBJECT_NAME><OBJECT_ID>2025-134C</OBJECT_ID><CENTER_NAME>EARTH</CENTER_NAME><REF_FRAME>TEME</REF_FRAME><TIME_SYSTEM>UTC</TIME_SYSTEM><MEAN_ELEMENT_THEORY>SGP4</MEAN_ELEMENT_THEORY></metadata><data><meanElements><EPOCH>2025-09-14T10:20:49.891200</EPOCH><MEAN_MOTION>14.79861151</MEAN_MOTION><ECCENTRICITY>.00149134</ECCENTRICITY><INCLINATION>51.8989</INCLINATION><RA_OF_ASC_NODE>305.0173</RA_OF_ASC_NODE><ARG_OF_PERICENTER>49.8368</ARG_OF_PERICENTER><MEAN_ANOMALY>310.3898</MEAN_ANOMALY></meanElements><tleParameters><EPHEMERIS_TYPE>0</EPHEMERIS_TYPE><CLASSIFICATION_TYPE>U</CLASSIFICATION_TYPE><NORAD_CAT_ID>64502</NORAD_CAT_ID><ELEMENT_SET_NO>999</ELEMENT_SET_NO><REV_AT_EPOCH>1379</REV_AT_EPOCH><BSTAR>-.11621062E-2</BSTAR><MEAN_MOTION_DOT>-.9074E-4</MEAN_MOTION_DOT><MEAN_MOTION_DDOT>0</MEAN_MOTION_DDOT></tleParameters></data></segment></body></omm>
<omm id="CCSDS_OMM_VERS" version="2.0">
<header><CREATION_DATE/><ORIGINATOR/></header><body><segment><metadata><OBJECT_NAME>KUIPER-00042</OBJECT_NAME><OBJECT_ID>2025-134D</OBJECT_ID><CENTER_NAME>EARTH</CENTER_NAME><REF_FRAME>TEME</REF_FRAME><TIME_SYSTEM>UTC</TIME_SYSTEM><MEAN_ELEMENT_THEORY>SGP4</MEAN_ELEMENT_THEORY></metadata><data><meanElements><EPOCH>2025-09-16T06:00:02.000160</EPOCH><MEAN_MOTION>14.79815887</MEAN_MOTION><ECCENTRICITY>.00144847</ECCENTRICITY><INCLINATION>51.8994</INCLINATION><RA_OF_ASC_NODE>292.9335</RA_OF_ASC_NODE><ARG_OF_PERICENTER>60.5715</ARG_OF_PERICENTER><MEAN_ANOMALY>274.3825</MEAN_ANOMALY></meanElements><tleParameters><EPHEMERIS_TYPE>0</EPHEMERIS_TYPE><CLASSIFICATION_TYPE>U</CLASSIFICATION_TYPE><NORAD_CAT_ID>64503</NORAD_CAT_ID><ELEMENT_SET_NO>999</ELEMENT_SET_NO><REV_AT_EPOCH>523</REV_AT_EPOCH><BSTAR>-.36540283E-2</BSTAR><MEAN_MOTION_DOT>-.2794E-3</MEAN_MOTION_DOT><MEAN_MOTION_DDOT>0</MEAN_MOTION_DDOT></tleParameters></data></segment></body></omm>
<omm id="CCSDS_OMM_VERS" version="2.0">
<header><CREATION_DATE/><ORIGINATOR/></header><body><segment><metadata><OBJECT_NAME>KUIPER-00043</OBJECT_NAME><OBJECT_ID>2025-134E</OBJECT_ID><CENTER_NAME>EARTH</CENTER_NAME><REF_FRAME>TEME</REF_FRAME><TIME_SYSTEM>UTC</TIME_SYSTEM><MEAN_ELEMENT_THEORY>SGP4</MEAN_ELEMENT_THEORY></metadata><data><meanElements><EPOCH>2025-09-16T06:00:02.000160</EPOCH><MEAN_MOTION>15.01445540</MEAN_MOTION><ECCENTRICITY>.00067917</ECCENTRICITY><INCLINATION>51.8888</INCLINATION><RA_OF_ASC_NODE>286.4924</RA_OF_ASC_NODE><ARG_OF_PERICENTER>59.4017</ARG_OF_PERICENTER><MEAN_ANOMALY>322.9468</MEAN_ANOMALY></meanElements><tleParameters><EPHEMERIS_TYPE>0</EPHEMERIS_TYPE><CLASSIFICATION_TYPE>U</CLASSIFICATION_TYPE><NORAD_CAT_ID>64504</NORAD_CAT_ID><ELEMENT_SET_NO>999</ELEMENT_SET_NO><REV_AT_EPOCH>589</REV_AT_EPOCH><BSTAR>-.10380483E+0</BSTAR><MEAN_MOTION_DOT>-.1255001E-1</MEAN_MOTION_DOT><MEAN_MOTION_DDOT>0</MEAN_MOTION_DDOT></tleParameters></data></segment></body></omm>

</ndm>
