KUIPER-00035            
1 63748U 25088AA  25258.94020398  .00003407  00000+0  47636-3 0  9990
2 63748  51.9010 166.8418 0004514 206.0763 153.9973 14.79876571 21632
KUIPER-00037            
1 63749U 25088AB  25258.94170681 -.00000834  00000+0 -80137-4 0  9999
2 63749  51.8990 165.7982 0006801 153.1375 206.9941 14.79927576 22430
KUIPER-00038            
1 63750U 25088AC  25259.25002315 -.00065336  00000+0 -77834-2 0  9990
2 63750  51.8980 148.8814 0005325 206.0751 201.9869 14.84182291  4823
KUIPER-00039            
1 64500U 25134A   25259.25002315 -.01099951  00000+0 -84905-1 0  9993
2 64500  51.8891 285.4032 0013419  72.5457  56.5717 15.04039357  5666
KUIPER-00040            
1 64501U 25134B   25258.85033761  .00002651  00000+0  37790-3 0  9998
2 64501  51.8982 297.3795 0018297  56.7495 303.5218 14.79745247 14025
KUIPER-00041            
1 64502U 25134C   25257.43113300 -.00009074  00000+0 -11621-2 0  9992
2 64502  51.8989 305.0173 0014913  49.8368 310.3898 14.79861151 13799
KUIPER-00042            
1 64503U 25134D   25259.25002315 -.00027940  00000+0 -36540-2 0  9997
2 64503  51.8994 292.9335 0014484  60.5715 274.3825 14.79815887  5233
KUIPER-00043            
1 64504U 25134E   25259.25002315 -.01255001  00000+0 -10380+0 0  9991
2 64504  51.8888 286.4924 0006791  59.4017 322.9468 15.01445540  5898
